QIANFAN-41              
1 62242U 24232F   25267.29083307  .00000124  00000+0  17267-3 0  9995
2 62242  88.9986  49.2025 0015496  65.2149 295.0613 13.50971480 88527
QIANFAN-42              
1 62243U 24232G   25267.32156264  .00000676  00000+0  28600-3 0  9998
2 62243  88.9986  46.4145 0014363 352.6911   7.4070 14.24357390 90066
QIANFAN-43              
1 62244U 24232H   25267.28676549  .00000119  00000+0  16485-3 0  9997
2 62244  88.9991  49.2647 0017099  69.6065 290.6920 13.50968727 57136
QIANFAN-44              
1 62245U 24232J   25267.34844289  .00000123  00000+0  17158-3 0  9996
2 62245  88.9989  49.0704 0015270  67.1900 293.0863 13.50974104 88612
QIANFAN-45              
1 62246U 24232K   25267.31553859  .00000125  00000+0  17419-3 0  9996
2 62246  88.9992  49.2174 0015908  66.8086 293.4739 13.50970819 88535
QIANFAN-46              
1 62247U 24232L   25267.34020774  .00000112  00000+0  15509-3 0  9999
2 62247  88.9988  49.2872 0016077  71.6458 288.6440 13.50971439 88490
QIANFAN-47              
1 62248U 24232M   25267.34436644  .00000001  00000+0 -16914-4 0  9997
2 62248  88.9984  49.2230 0016485  70.7962 289.4972 13.50972793 88525
QIANFAN-48              
1 62249U 24232N   25267.30733521  .00000129  00000+0  18038-3 0  9996
2 62249  88.9988  49.2254 0018773  72.9084 287.4122 13.50968779 88521
